CTC1_L_00177001-01
1 10000U 25099DK  26075.70031250  .00000000  00000+0  00000-0 0  9993
2 10000  75.0000   0.0000 0000000   0.0000   0.0000 13.89609395    19
CTC1_L_00177001-02
1 10001U 24977OW  26075.70031250  .00000000  00000+0  00000-0 0  9998
2 10001  75.0000   0.0000 0000000   0.0000  90.0000 13.89609395    19
CTC1_L_00177001-03
1 10002U 24080A   26075.70031250  .00000000  00000+0  00000-0 0  9994
2 10002  75.0000   0.0000 0000000   0.0000 180.0000 13.89609395    10
CTC1_L_00177001-04
1 10003U 24871DF  26075.70031250  .00000000  00000+0  00000-0 0  9993
2 10003  75.0000   0.0000 0000000   0.0000 270.0000 13.89609395    11
CTC1_L_00177002-01
1 10004U 24691RG  26075.70031250  .00000000  00000+0  00000-0 0  9994
2 10004  75.0000  12.0000 0000000   0.0000  12.0000 13.89609395    19
CTC1_L_00177002-02
1 10005U 22623UW  26075.70031250  .00000000  00000+0  00000-0 0  9998
2 10005  75.0000  12.0000 0000000   0.0000 102.0000 13.89609395    10
CTC1_L_00177002-03
1 10006U 26537QX  26075.70031250  .00000000  00000+0  00000-0 0  9997
2 10006  75.0000  12.0000 0000000   0.0000 192.0000 13.89609395    10
CTC1_L_00177002-04
1 10007U 25087PZ  26075.70031250  .00000000  00000+0  00000-0 0  9997
2 10007  75.0000  12.0000 0000000   0.0000 282.0000 13.89609395    11
CTC1_L_00177003-01
1 10008U 26006YB  26075.70031250  .00000000  00000+0  00000-0 0  9990
2 10008  75.0000  24.0000 0000000   0.0000  24.0000 13.89609395    19
CTC1_L_00177003-02
1 10009U 26939SH  26075.70031250  .00000000  00000+0  00000-0 0  9996
2 10009  75.0000  24.0000 0000000   0.0000 114.0000 13.89609395    10
CTC1_L_00177003-03
1 10010U 23502YI  26075.70031250  .00000000  00000+0  00000-0 0  9991
2 10010  75.0000  24.0000 0000000   0.0000 204.0000 13.89609395    12
CTC1_L_00177003-04
1 10011U 23163ZY  26075.70031250  .00000000  00000+0  00000-0 0  9995
2 10011  75.0000  24.0000 0000000   0.0000 294.0000 13.89609395    12
CTC1_L_00177004-01
1 10012U 23887SG  26075.70031250  .00000000  00000+0  00000-0 0  9999
2 10012  75.0000  36.0000 0000000   0.0000  36.0000 13.89609395    10
CTC1_L_00177004-02
1 10013U 26586EH  26075.70031250  .00000000  00000+0  00000-0 0  9999
2 10013  75.0000  36.0000 0000000   0.0000 126.0000 13.89609395    11
CTC1_L_00177004-03
1 10014U 23567AG  26075.70031250  .00000000  00000+0  00000-0 0  9996
2 10014  75.0000  36.0000 0000000   0.0000 216.0000 13.89609395    12
CTC1_L_00177004-04
1 10015U 24681TX  26075.70031250  .00000000  00000+0  00000-0 0  9995
2 10015  75.0000  36.0000 0000000   0.0000 306.0000 13.89609395    13
CTC1_L_00177005-01
1 10016U 24670MR  26075.70031250  .00000000  00000+0  00000-0 0  9994
2 10016  75.0000  48.0000 0000000   0.0000  48.0000 13.89609395    10
CTC1_L_00177005-02
1 10017U 23665JR  26075.70031250  .00000000  00000+0  00000-0 0  9998
2 10017  75.0000  48.0000 0000000   0.0000 138.0000 13.89609395    11
CTC1_L_00177005-03
1 10018U 26377XE  26075.70031250  .00000000  00000+0  00000-0 0  9992
2 10018  75.0000  48.0000 0000000   0.0000 228.0000 13.89609395    12
CTC1_L_00177005-04
1 10019U 26760QC  26075.70031250  .00000000  00000+0  00000-0 0  9999
2 10019  75.0000  48.0000 0000000   0.0000 318.0000 13.89609395    13
CTC1_L_00177006-01
1 10020U 23352IJ  26075.70031250  .00000000  00000+0  00000-0 0  9995
2 10020  75.0000  60.0000 0000000   0.0000  60.0000 13.89609395    13
CTC1_L_00177006-02
1 10021U 24838R   26075.70031250  .00000000  00000+0  00000-0 0  9996
2 10021  75.0000  60.0000 0000000   0.0000 150.0000 13.89609395    14
CTC1_L_00177006-03
1 10022U 22784QB  26075.70031250  .00000000  00000+0  00000-0 0  9995
2 10022  75.0000  60.0000 0000000   0.0000 240.0000 13.89609395    15
CTC1_L_00177006-04
1 10023U 22558EQ  26075.70031250  .00000000  00000+0  00000-0 0  9995
2 10023  75.0000  60.0000 0000000   0.0000 330.0000 13.89609395    16
CTC1_L_00177007-01
1 10024U 26051JM  26075.70031250  .00000000  00000+0  00000-0 0  9998
2 10024  75.0000  72.0000 0000000   0.0000  72.0000 13.89609395    13
CTC1_L_00177007-02
1 10025U 24738WX  26075.70031250  .00000000  00000+0  00000-0 0  9999
2 10025  75.0000  72.0000 0000000   0.0000 162.0000 13.89609395    14
CTC1_L_00177007-03
1 10026U 26197HM  26075.70031250  .00000000  00000+0  00000-0 0  9991
2 10026  75.0000  72.0000 0000000   0.0000 252.0000 13.89609395    15
CTC1_L_00177007-04
1 10027U 23752PC  26075.70031250  .00000000  00000+0  00000-0 0  9996
2 10027  75.0000  72.0000 0000000   0.0000 342.0000 13.89609395    16
CTC1_L_00177008-01
1 10028U 22872HA  26075.70031250  .00000000  00000+0  00000-0 0  9999
2 10028  75.0000  84.0000 0000000   0.0000  84.0000 13.89609395    13
CTC1_L_00177008-02
1 10029U 22934OA  26075.70031250  .00000000  00000+0  00000-0 0  9999
2 10029  75.0000  84.0000 0000000   0.0000 174.0000 13.89609395    14
CTC1_L_00177008-03
1 10030U 25006XX  26075.70031250  .00000000  00000+0  00000-0 0  9994
2 10030  75.0000  84.0000 0000000   0.0000 264.0000 13.89609395    16
CTC1_L_00177008-04
1 10031U 24844XD  26075.70031250  .00000000  00000+0  00000-0 0  9994
2 10031  75.0000  84.0000 0000000   0.0000 354.0000 13.89609395    17
CTC1_L_00177009-01
1 10032U 26297WK  26075.70031250  .00000000  00000+0  00000-0 0  9999
2 10032  75.0000  96.0000 0000000   0.0000  96.0000 13.89609395    14
CTC1_L_00177009-02
1 10033U 22448HC  26075.70031250  .00000000  00000+0  00000-0 0  9994
2 10033  75.0000  96.0000 0000000   0.0000 186.0000 13.89609395    15
CTC1_L_00177009-03
1 10034U 26191OT  26075.70031250  .00000000  00000+0  00000-0 0  9994
2 10034  75.0000  96.0000 0000000   0.0000 276.0000 13.89609395    16
CTC1_L_00177009-04
1 10035U 23964ME  26075.70031250  .00000000  00000+0  00000-0 0  9990
2 10035  75.0000  96.0000 0000000   0.0000   6.0000 13.89609395    18
CTC1_L_00177010-01
1 10036U 26779OK  26075.70031250  .00000000  00000+0  00000-0 0  9998
2 10036  75.0000 108.0000 0000000   0.0000 108.0000 13.89609395    16
CTC1_L_00177010-02
1 10037U 23170FU  26075.70031250  .00000000  00000+0  00000-0 0  9991
2 10037  75.0000 108.0000 0000000   0.0000 198.0000 13.89609395    16
CTC1_L_00177010-03
1 10038U 25761MI  26075.70031250  .00000000  00000+0  00000-0 0  9990
2 10038  75.0000 108.0000 0000000   0.0000 288.0000 13.89609395    17
CTC1_L_00177010-04
1 10039U 23293ML  26075.70031250  .00000000  00000+0  00000-0 0  9999
2 10039  75.0000 108.0000 0000000   0.0000  18.0000 13.89609395    19
CTC1_L_00177011-01
1 10040U 22815JL  26075.70031250  .00000000  00000+0  00000-0 0  9990
2 10040  75.0000 120.0000 0000000   0.0000 120.0000 13.89609395    19
CTC1_L_00177011-02
1 10041U 25651MV  26075.70031250  .00000000  00000+0  00000-0 0  9992
2 10041  75.0000 120.0000 0000000   0.0000 210.0000 13.89609395    10
CTC1_L_00177011-03
1 10042U 22969OC  26075.70031250  .00000000  00000+0  00000-0 0  9992
2 10042  75.0000 120.0000 0000000   0.0000 300.0000 13.89609395    11
CTC1_L_00177011-04
1 10043U 26303GI  26075.70031250  .00000000  00000+0  00000-0 0  9999
2 10043  75.0000 120.0000 0000000   0.0000  30.0000 13.89609395    12
CTC1_L_00177012-01
1 10044U 23482NW  26075.70031250  .00000000  00000+0  00000-0 0  9995
2 10044  75.0000 132.0000 0000000   0.0000 132.0000 13.89609395    19
CTC1_L_00177012-02
1 10045U 26429DU  26075.70031250  .00000000  00000+0  00000-0 0  9990
2 10045  75.0000 132.0000 0000000   0.0000 222.0000 13.89609395    10
CTC1_L_00177012-03
1 10046U 24979TE  26075.70031250  .00000000  00000+0  00000-0 0  9999
2 10046  75.0000 132.0000 0000000   0.0000 312.0000 13.89609395    11
CTC1_L_00177012-04
1 10047U 22699HQ  26075.70031250  .00000000  00000+0  00000-0 0  9997
2 10047  75.0000 132.0000 0000000   0.0000  42.0000 13.89609395    12
CTC1_L_00177013-01
1 10048U 26690PY  26075.70031250  .00000000  00000+0  00000-0 0  9993
2 10048  75.0000 144.0000 0000000   0.0000 144.0000 13.89609395    19
CTC1_L_00177013-02
1 10049U 24701HB  26075.70031250  .00000000  00000+0  00000-0 0  9995
2 10049  75.0000 144.0000 0000000   0.0000 234.0000 13.89609395    10
CTC1_L_00177013-03
1 10050U 23505MN  26075.70031250  .00000000  00000+0  00000-0 0  9998
2 10050  75.0000 144.0000 0000000   0.0000 324.0000 13.89609395    12
CTC1_L_00177013-04
1 10051U 26937SJ  26075.70031250  .00000000  00000+0  00000-0 0  9991
2 10051  75.0000 144.0000 0000000   0.0000  54.0000 13.89609395    13
CTC1_L_00177014-01
1 10052U 22281XI  26075.70031250  .00000000  00000+0  00000-0 0  9990
2 10052  75.0000 156.0000 0000000   0.0000 156.0000 13.89609395    10
CTC1_L_00177014-02
1 10053U 24491LS  26075.70031250  .00000000  00000+0  00000-0 0  9996
2 10053  75.0000 156.0000 0000000   0.0000 246.0000 13.89609395    11
CTC1_L_00177014-03
1 10054U 24986IY  26075.70031250  .00000000  00000+0  00000-0 0  9996
2 10054  75.0000 156.0000 0000000   0.0000 336.0000 13.89609395    12
CTC1_L_00177014-04
1 10055U 24613BI  26075.70031250  .00000000  00000+0  00000-0 0  9994
2 10055  75.0000 156.0000 0000000   0.0000  66.0000 13.89609395    13
CTC1_L_00177015-01
1 10056U 24534MZ  26075.70031250  .00000000  00000+0  00000-0 0  9997
2 10056  75.0000 168.0000 0000000   0.0000 168.0000 13.89609395    10
CTC1_L_00177015-02
1 10057U 24811GO  26075.70031250  .00000000  00000+0  00000-0 0  9996
2 10057  75.0000 168.0000 0000000   0.0000 258.0000 13.89609395    11
CTC1_L_00177015-03
1 10058U 23777B   26075.70031250  .00000000  00000+0  00000-0 0  9997
2 10058  75.0000 168.0000 0000000   0.0000 348.0000 13.89609395    12
CTC1_L_00177015-04
1 10059U 22360OB  26075.70031250  .00000000  00000+0  00000-0 0  9995
2 10059  75.0000 168.0000 0000000   0.0000  78.0000 13.89609395    13
CTC1_L_00177016-01
1 10060U 22121ML  26075.70031250  .00000000  00000+0  00000-0 0  9992
2 10060  75.0000 180.0000 0000000   0.0000 180.0000 13.89609395    13
CTC1_L_00177016-02
1 10061U 23814TE  26075.70031250  .00000000  00000+0  00000-0 0  9993
2 10061  75.0000 180.0000 0000000   0.0000 270.0000 13.89609395    14
